COMMENT,ORIGINATOR,NORAD_CAT_ID,OBJECT_NAME,OBJECT_TYPE,CLASSIFICATION_TYPE,INTLDES,EPOCH,EPOCH_MICROSECONDS,MEAN_MOTION,ECCENTRICITY,INCLINATION,RA_OF_ASC_NODE,ARG_OF_PERICENTER,MEAN_ANOMALY,EPHEMERIS_TYPE,ELEMENT_SET_NO,REV_AT_EPOCH,BSTAR,MEAN_MOTION_DOT,MEAN_MOTION_DDOT,FILE,TLE_LINE0,TLE_LINE1,TLE_LINE2,OBJECT_ID,OBJECT_NUMBER,SEMIMAJOR_AXIS,PERIOD,APOGEE,PERIGEE,DECAYED
"GENERATED VIA SPACETRACK.ORG API","18 SPCS","12345","COSMOS 1174 DEB","DEBRIS","U","80030T","1991-03-08 02:03:13","228128","14.87936347","0.0306224","66.0302","306.1336","138.6228","223.8633","0","999","946","0.0035683","0.00079758","0","145815","0 COSMOS 1174 DEB","1 12345U 80030  T 91067.08556977  .00079758 +00000-0 +35683-2 0  9999","2 12345 066.0302 306.1336 0306224 138.6228 223.8633 14.87936347009461","1980-030T","12345","6982.526","96.778","818.213","390.569","1"
"GENERATED VIA SPACETRACK.ORG API","18 SPCS","12345","COSMOS 1174 DEB","DEBRIS","U","80030T","1991-03-07 01:51:18","23615","14.87767961","0.0307034","66.0312","309.1134","139.1591","223.3234","0","999","931","0.0035128","0.00078441","0","145815","0 COSMOS 1174 DEB","1 12345U 80030  T 91066.07729194  .00078441 +00000-0 +35128-2 0  9992","2 12345 066.0312 309.1134 0307034 139.1591 223.3234 14.87767961009310","1980-030T","12345","6983.053","96.789","819.321","390.514","1"
"GENERATED VIA SPACETRACK.ORG API","18 SPCS","12345","COSMOS 1174 DEB","DEBRIS","U","80030T","1991-03-06 01:39:12","142655","14.87601016","0.030787","66.0352","312.0949","139.6744","222.7504","0","999","916","0.003437","0.0007669","0","145815","0 COSMOS 1174 DEB","1 12345U 80030  T 91065.06889054  .00076690 +00000-0 +34370-2 0  9994","2 12345 066.0352 312.0949 0307870 139.6744 222.7504 14.87601016009168","1980-030T","12345","6983.575","96.800","820.443","390.437","1"
"GENERATED VIA SPACETRACK.ORG API","18 SPCS","12345","COSMOS 1174 DEB","DEBRIS","U","80030T","1991-03-06 00:02:23","372159","14.87594033","0.0307956","66.0378","312.2962","139.729","222.7095","0","999","915","0.0034622","0.00077756","0","34759","0 COSMOS 1174 DEB","1 12345U 80030  T 91065.00165940  .00077756 +00000-0 +34622-2 0  9993","2 12345 066.0378 312.2962 0307956 139.7290 222.7095 14.87594033009159","1980-030T","12345","6983.597","96.801","820.526","390.398","1"
"GENERATED VIA SPACETRACK.ORG API","18 SPCS","12345","COSMOS 1174 DEB","DEBRIS","U","80030T","1991-03-04 23:50:05","250047","14.87461904","0.0307027","66.0391","315.2741","140.596","221.7558","0","999","900","0.0037499","0.00082863","0","145815","0 COSMOS 1174 DEB","1 12345U 80030  T 91063.99311632  .00082863 +00000-0 +37499-2 0  9990","2 12345 066.0391 315.2741 0307027 140.5960 221.7558 14.87461904009002","1980-030T","12345","6984.011","96.809","820.303","391.448","1"
"GENERATED VIA SPACETRACK.ORG API","18 SPCS","12345","COSMOS 1174 DEB","DEBRIS","U","80030T","1991-03-04 02:51:21","100607","14.8732706","0.0306787","66.0364","317.8471","141.2471","221.1097","0","999","887","0.0038766","0.00085148","0","145815","0 COSMOS 1174 DEB","1 12345U 80030  T 91063.11899422  .00085148 +00000-0 +38766-2 0  9999","2 12345 066.0364 317.8471 0306787 141.2471 221.1097 14.87327060008877","1980-030T","12345","6984.433","96.818","820.571","392.024","1"
"GENERATED VIA SPACETRACK.ORG API","18 SPCS","12345","COSMOS 1174 DEB","DEBRIS","U","80030T","1991-03-01 03:50:07","969343","14.86801681","0.0310898","66.0392","326.5656","143.022","219.2985","0","999","843","0.0038722","0.00085618","0","145815","0 COSMOS 1174 DEB","1 12345U 80030  T 91060.15981446  .00085618 +00000-0 +38722-2 0  9992","2 12345 066.0392 326.5656 0310898 143.0220 219.2985 14.86801681008431","1980-030T","12345","6986.078","96.852","825.139","390.747","1"
"GENERATED VIA SPACETRACK.ORG API","18 SPCS","12345","COSMOS 1174 DEB","DEBRIS","U","80030T","1991-02-28 16:32:04","192224","14.86714412","0.0311255","66.04","327.9562","143.3609","218.932","0","999","836","0.0038403","0.0008543","0","34759","0 COSMOS 1174 DEB","1 12345U 80030  T 91059.68893741  .00085430 +00000-0 +38403-2 0  9996","2 12345 066.0400 327.9562 0311255 143.3609 218.9320 14.86714412008360","1980-030T","12345","6986.351","96.858","825.670","390.763","1"
"GENERATED VIA SPACETRACK.ORG API","18 SPCS","12345","COSMOS 1174 DEB","DEBRIS","U","80030T","1991-02-28 03:37:05","110176","14.86622101","0.0311641","66.0403","329.5427","143.6951","218.5756","0","999","828","0.003834","0.00084628","0","145815","0 COSMOS 1174 DEB","1 12345U 80030  T 91059.15075359  .00084628 +00000-0 +38340-2 0  9993","2 12345 066.0403 329.5427 0311641 143.6951 218.5756 14.86622101008286","1980-030T","12345","6986.640","96.864","826.238","390.773","1"
"GENERATED VIA SPACETRACK.ORG API","18 SPCS","12345","COSMOS 1174 DEB","DEBRIS","U","80030T","1991-02-27 03:23:51","664416","14.86450069","0.0312463","66.0401","332.515","144.3936","217.8487","0","999","813","0.0038218","0.00084278","0","145815","0 COSMOS 1174 DEB","1 12345U 80030  T 91058.14157019  .00084278 +00000-0 +38218-2 0  9990","2 12345 066.0401 332.5150 0312463 144.3936 217.8487 14.86450069008134","1980-030T","12345","6987.180","96.875","827.368","390.721","1"
"GENERATED VIA SPACETRACK.ORG API","18 SPCS","12345","COSMOS 1174 DEB","DEBRIS","U","80030T","1991-02-27 00:10:05","143007","14.86427193","0.0312517","66.0401","332.9113","144.4816","217.7586","0","999","811","0.0038214","0.00084809","0","34759","0 COSMOS 1174 DEB","1 12345U 80030  T 91058.00700397  .00084809 +00000-0 +38214-2 0  9994","2 12345 066.0401 332.9113 0312517 144.4816 217.7586 14.86427193008114","1980-030T","12345","6987.251","96.877","827.480","390.753","1"
"GENERATED VIA SPACETRACK.ORG API","18 SPCS","12345","COSMOS 1174 DEB","DEBRIS","U","80030T","1991-02-26 04:47:22","203456","14.86288166","0.031287","66.0395","335.2882","145.0024","217.2159","0","999","799","0.0038049","0.00083641","0","145815","0 COSMOS 1174 DEB","1 12345U 80030  T 91057.19956254  .00083641 +00000-0 +38049-2 0  9997","2 12345 066.0395 335.2882 0312870 145.0024 217.2159 14.86288166007996","1980-030T","12345","6987.687","96.886","828.176","390.928","1"
"GENERATED VIA SPACETRACK.ORG API","18 SPCS","12345","COSMOS 1174 DEB","DEBRIS","U","80030T","1991-02-26 04:47:22","216416","14.86288166","0.031287","66.0395","335.2882","145.0025","217.2159","0","999","799","0.0038049","0.00084213","0","34759","0 COSMOS 1174 DEB","1 12345U 80030  T 91057.19956269  .00084213 +00000-0 +38049-2 0  9999","2 12345 066.0395 335.2882 0312870 145.0025 217.2159 14.86288166007997","1980-030T","12345","6987.687","96.886","828.176","390.928","1"
"GENERATED VIA SPACETRACK.ORG API","18 SPCS","12345","COSMOS 1174 DEB","DEBRIS","U","80030T","1991-02-25 04:33:50","3712","14.86112677","0.0313077","66.0406","338.2616","145.5444","216.6688","0","999","784","0.0037626","0.00082312","0","145815","0 COSMOS 1174 DEB","1 12345U 80030  T 91056.19016208  .00082312 +00000-0 +37626-2 0  9996","2 12345 066.0406 338.2616 0313077 145.5444 216.6688 14.86112677007845","1980-030T","12345","6988.237","96.897","828.888","391.316","1"
"GENERATED VIA SPACETRACK.ORG API","18 SPCS","12345","COSMOS 1174 DEB","DEBRIS","U","80030T","1991-02-24 09:10:52","480703","14.85974816","0.0312828","66.0405","340.6382","146.0245","216.1674","0","999","772","0.0037312","0.00081652","0","34759","0 COSMOS 1174 DEB","1 12345U 80030  T 91055.38255186  .00081652 +00000-0 +37312-2 0  9994","2 12345 066.0405 340.6382 0312828 146.0245 216.1674 14.85974816007726","1980-030T","12345","6988.669","96.906","829.159","391.909","1"
"GENERATED VIA SPACETRACK.ORG API","18 SPCS","12345","COSMOS 1174 DEB","DEBRIS","U","80030T","1991-02-24 04:20:07","622591","14.85922992","0.0314112","66.0419","341.2275","146.4126","215.7887","0","999","769","0.0034582","0.00076076","0","34759","0 COSMOS 1174 DEB","1 12345U 80030  T 91055.18064378  .00076076 +00000-0 +34582-2 0  9993","2 12345 066.0419 341.2275 0314112 146.4126 215.7887 14.85922992007694","1980-030T","12345","6988.832","96.909","830.224","391.169","1"
"GENERATED VIA SPACETRACK.ORG API","18 SPCS","12345","COSMOS 1174 DEB","DEBRIS","U","80030T","1991-02-23 18:38:37","611744","14.85844031","0.0313733","66.0389","342.4121","146.8654","215.4014","0","999","763","0.0033599","0.0007352","0","34759","0 COSMOS 1174 DEB","1 12345U 80030  T 91054.77682421  .00073520 +00000-0 +33599-2 0  9990","2 12345 066.0389 342.4121 0313733 146.8654 215.4014 14.85844031007631","1980-030T","12345","6989.079","96.915","830.215","391.674","1"
"GENERATED VIA SPACETRACK.ORG API","18 SPCS","12345","COSMOS 1174 DEB","DEBRIS","U","80030T","1991-02-23 00:52:25","955328","14.85678353","0.0314092","66.042","344.593","146.5675","215.6052","0","999","752","0.0028193","0.00061375","0","34759","0 COSMOS 1174 DEB","1 12345U 80030  T 91054.03641152  .00061375 +00000-0 +28193-2 0  9994","2 12345 066.0420 344.5930 0314092 146.5675 215.6052 14.85678353007521","1980-030T","12345","6989.599","96.925","831.002","391.926","1"
"GENERATED VIA SPACETRACK.ORG API","18 SPCS","12345","COSMOS 1174 DEB","DEBRIS","U","80030T","1991-02-23 00:52:25","421376","14.85717668","0.031362","66.0416","344.5937","146.9962","215.2852","0","999","752","0.0032257","0.00070201","0","34759","0 COSMOS 1174 DEB","1 12345U 80030  T 91054.03640534  .00070201 +00000-0 +32257-2 0  9991","2 12345 066.0416 344.5937 0313620 146.9962 215.2852 14.85717668007529","1980-030T","12345","6989.476","96.923","830.545","392.137","1"
"GENERATED VIA SPACETRACK.ORG API","18 SPCS","12345","COSMOS 1174 DEB","DEBRIS","U","80030T","1991-02-22 05:29:08","951711","14.85572481","0.0315471","66.0394","346.9672","147.2076","214.9542","0","999","740","0.0027593","0.00060339","0","34759","0 COSMOS 1174 DEB","1 12345U 80030  T 91053.22857583  .00060339 +00000-0 +27593-2 0  9993","2 12345 066.0394 346.9672 0315471 147.2076 214.9542 14.85572481007403","1980-030T","12345","6989.931","96.932","832.308","391.284","1"
